{
  "links" : {
    "next" : "https://api.nasa.gov/neo/rest/v1/feed?start_date=2010-11-16&end_date=2010-11-16&detailed=true&api_key=t0TVs3DtDT2H8Oy2Zy8m2eVrNsAVKAexjcZXUckd",
    "prev" : "https://api.nasa.gov/neo/rest/v1/feed?start_date=2010-11-14&end_date=2010-11-14&detailed=true&api_key=t0TVs3DtDT2H8Oy2Zy8m2eVrNsAVKAexjcZXUckd",
    "self" : "https://api.nasa.gov/neo/rest/v1/feed?start_date=2010-11-15&end_date=2010-11-15&detailed=true&api_key=t0TVs3DtDT2H8Oy2Zy8m2eVrNsAVKAexjcZXUckd"
  },
  "element_count" : 11,
  "near_earth_objects" : {
    "2010-11-15" : [ {
      "links" : {
        "self" : "https://api.nasa.gov/neo/rest/v1/neo/3550084?api_key=t0TVs3DtDT2H8Oy2Zy8m2eVrNsAVKAexjcZXUckd"
      },
      "neo_reference_id" : "3550084",
      "name" : "(2010 US7)",
      "nasa_jpl_url" : "http://ssd.jpl.nasa.gov/sbdb.cgi?sstr=3550084",
      "absolute_magnitude_h" : 19.0,
      "estimated_diameter" : {
        "kilometers" : {
          "estimated_diameter_min" : 0.4212646106,
          "estimated_diameter_max" : 0.9419763057
        },
        "meters" : {
          "estimated_diameter_min" : 421.2646105562,
          "estimated_diameter_max" : 941.9763057186
        },
        "miles" : {
          "estimated_diameter_min" : 0.2617616123,
          "estimated_diameter_max" : 0.5853167591
        },
        "feet" : {
          "estimated_diameter_min" : 1382.1017848971,
          "estimated_diameter_max" : 3090.4735428537
        }
      },
      "is_potentially_hazardous_asteroid" : true,
      "close_approach_data" : [ {
        "close_approach_date" : "2010-11-15",
        "epoch_date_close_approach" : 1289808000000,
        "relative_velocity" : {
          "kilometers_per_second" : "36.5390761071",
          "kilometers_per_hour" : "131540.6739854941",
          "miles_per_hour" : "81734.2593439311"
        },
        "miss_distance" : {
          "astronomical" : "0.1647983908",
          "lunar" : "64.1065750122",
          "kilometers" : "24653490",
          "miles" : "15318968"
        },
        "orbiting_body" : "Earth"
      } ],
      "orbital_data" : {
        "orbit_id" : "15",
        "orbit_determination_date" : "2017-04-06 08:56:06",
        "orbit_uncertainty" : "8",
        "minimum_orbit_intersection" : ".0409558",
        "jupiter_tisserand_invariant" : "3.184",
        "epoch_osculation" : "2455504.5",
        "eccentricity" : ".6381753112910045",
        "semi_major_axis" : "1.967786953588555",
        "inclination" : "55.23224175569872",
        "ascending_node_longitude" : "240.9537572870822",
        "orbital_period" : "1008.243758454398",
        "perihelion_distance" : ".7119939019278015",
        "perihelion_argument" : "247.9067350201616",
        "aphelion_distance" : "3.223580005249309",
        "perihelion_time" : "2455554.062079268602",
        "mean_anomaly" : "342.3035368311643",
        "mean_motion" : ".3570565123575546",
        "equinox" : "J2000"
      }
    }, {
      "links" : {
        "self" : "https://api.nasa.gov/neo/rest/v1/neo/3550886?api_key=t0TVs3DtDT2H8Oy2Zy8m2eVrNsAVKAexjcZXUckd"
      },
      "neo_reference_id" : "3550886",
      "name" : "(2010 VB40)",
      "nasa_jpl_url" : "http://ssd.jpl.nasa.gov/sbdb.cgi?sstr=3550886",
      "absolute_magnitude_h" : 24.7,
      "estimated_diameter" : {
        "kilometers" : {
          "estimated_diameter_min" : 0.0305179233,
          "estimated_diameter_max" : 0.0682401509
        },
        "meters" : {
          "estimated_diameter_min" : 30.5179232594,
          "estimated_diameter_max" : 68.2401509401
        },
        "miles" : {
          "estimated_diameter_min" : 0.0189629525,
          "estimated_diameter_max" : 0.0424024508
        },
        "feet" : {
          "estimated_diameter_min" : 100.1244233463,
          "estimated_diameter_max" : 223.8850168104
        }
      },
      "is_potentially_hazardous_asteroid" : false,
      "close_approach_data" : [ {
        "close_approach_date" : "2010-11-15",
        "epoch_date_close_approach" : 1289808000000,
        "relative_velocity" : {
          "kilometers_per_second" : "8.0051176727",
          "kilometers_per_hour" : "28818.4236217224",
          "miles_per_hour" : "17906.6477220642"
        },
        "miss_distance" : {
          "astronomical" : "0.0914677685",
          "lunar" : "35.5809631348",
          "kilometers" : "13683383",
          "miles" : "8502460"
        },
        "orbiting_body" : "Earth"
      } ],
      "orbital_data" : {
        "orbit_id" : "8",
        "orbit_determination_date" : "2017-04-06 08:55:51",
        "orbit_uncertainty" : "8",
        "minimum_orbit_intersection" : ".0746721",
        "jupiter_tisserand_invariant" : "2.988",
        "epoch_osculation" : "2455510.5",
        "eccentricity" : ".6268347625859521",
        "semi_major_axis" : "2.825612782992007",
        "inclination" : "3.415598203014596",
        "ascending_node_longitude" : "215.3241766842278",
        "orbital_period" : "1734.871836421267",
        "perihelion_distance" : "1.054420465005381",
        "perihelion_argument" : "213.163806490417",
        "aphelion_distance" : "4.596805100978632",
        "perihelion_time" : "2455527.255247160164",
        "mean_anomaly" : "356.5231500961467",
        "mean_motion" : ".2075081239099576",
        "equinox" : "J2000"
      }
    }, {
      "links" : {
        "self" : "https://api.nasa.gov/neo/rest/v1/neo/3297378?api_key=t0TVs3DtDT2H8Oy2Zy8m2eVrNsAVKAexjcZXUckd"
      },
      "neo_reference_id" : "3297378",
      "name" : "(2005 UT64)",
      "nasa_jpl_url" : "http://ssd.jpl.nasa.gov/sbdb.cgi?sstr=3297378",
      "absolute_magnitude_h" : 20.1,
      "estimated_diameter" : {
        "kilometers" : {
          "estimated_diameter_min" : 0.2538370294,
          "estimated_diameter_max" : 0.5675968529
        },
        "meters" : {
          "estimated_diameter_min" : 253.8370293645,
          "estimated_diameter_max" : 567.5968528656
        },
        "miles" : {
          "estimated_diameter_min" : 0.1577269688,
          "estimated_diameter_max" : 0.3526882241
        },
        "feet" : {
          "estimated_diameter_min" : 832.7986794202,
          "estimated_diameter_max" : 1862.1944587557
        }
      },
      "is_potentially_hazardous_asteroid" : true,
      "close_approach_data" : [ {
        "close_approach_date" : "2010-11-15",
        "epoch_date_close_approach" : 1289808000000,
        "relative_velocity" : {
          "kilometers_per_second" : "22.5831330134",
          "kilometers_per_hour" : "81299.2788482879",
          "miles_per_hour" : "50516.2102377042"
        },
        "miss_distance" : {
          "astronomical" : "0.4259884621",
          "lunar" : "165.7095184326",
          "kilometers" : "63726968",
          "miles" : "39598104"
        },
        "orbiting_body" : "Earth"
      } ],
      "orbital_data" : {
        "orbit_id" : "19",
        "orbit_determination_date" : "2017-09-02 06:18:31",
        "orbit_uncertainty" : "0",
        "minimum_orbit_intersection" : ".0451323",
        "jupiter_tisserand_invariant" : "3.849",
        "epoch_osculation" : "2458000.5",
        "eccentricity" : ".5216786276267267",
        "semi_major_axis" : "1.821637525199351",
        "inclination" : "10.50322030220917",
        "ascending_node_longitude" : "161.6340850534452",
        "orbital_period" : "898.0310913351932",
        "perihelion_distance" : ".8713281610200069",
        "perihelion_argument" : "327.3485317764602",
        "aphelion_distance" : "2.771946889378695",
        "perihelion_time" : "2458250.096458964786",
        "mean_anomaly" : "259.9425230436879",
        "mean_motion" : ".4008769890859255",
        "equinox" : "J2000"
      }
    } ]
  }
}